[{"OBJECT_NAME":"STARLINK-4793","OBJECT_ID":"2022-114BB","EPOCH":"2026-03-09T18:31:58.058400","MEAN_MOTION":15.08848836,"ECCENTRICITY":0.00015566,"INCLINATION":53.216,"RA_OF_ASC_NODE":273.8145,"ARG_OF_PERICENTER":83.5223,"MEAN_ANOMALY":276.5946,"EPHEMERIS_TYPE":0,"CLASSIFICATION_TYPE":"U","NORAD_CAT_ID":53867,"ELEMENT_SET_NO":999,"REV_AT_EPOCH":19326,"BSTAR":5.130695e-5,"MEAN_MOTION_DOT":5.29e-6,"MEAN_MOTION_DDOT":0},{"OBJECT_NAME":"CZ-4B DEB","OBJECT_ID":"2004-035K","EPOCH":"2026-03-08T06:51:30.377664","MEAN_MOTION":15.09293825,"ECCENTRICITY":0.00031468,"INCLINATION":97.5843,"RA_OF_ASC_NODE":91.2716,"ARG_OF_PERICENTER":107.6302,"MEAN_ANOMALY":252.527,"EPHEMERIS_TYPE":0,"CLASSIFICATION_TYPE":"U","NORAD_CAT_ID":29043,"ELEMENT_SET_NO":999,"REV_AT_EPOCH":10418,"BSTAR":0.00031897975,"MEAN_MOTION_DOT":5.021e-5,"MEAN_MOTION_DDOT":0}]
